[{"OBJECT_NAME":"THEA","OBJECT_ID":"2018-099AQ","EPOCH":"2026-03-09T22:33:02.658240","MEAN_MOTION":15.31454284,"ECCENTRICITY":0.00065849,"INCLINATION":97.4542,"RA_OF_ASC_NODE":137.8815,"ARG_OF_PERICENTER":275.4664,"MEAN_ANOMALY":84.5826,"EPHEMERIS_TYPE":0,"CLASSIFICATION_TYPE":"U","NORAD_CAT_ID":43796,"ELEMENT_SET_NO":999,"REV_AT_EPOCH":39748,"BSTAR":0.00074635274,"MEAN_MOTION_DOT":0.00022649,"MEAN_MOTION_DDOT":0},{"OBJECT_NAME":"STARLINK-2654","OBJECT_ID":"2021-040AC","EPOCH":"2026-03-09T14:45:45.520416","MEAN_MOTION":15.30209025,"ECCENTRICITY":0.0001338,"INCLINATION":53.1603,"RA_OF_ASC_NODE":178.4674,"ARG_OF_PERICENTER":68.4218,"MEAN_ANOMALY":291.6926,"EPHEMERIS_TYPE":0,"CLASSIFICATION_TYPE":"U","NORAD_CAT_ID":48454,"ELEMENT_SET_NO":999,"REV_AT_EPOCH":26667,"BSTAR":0.00025046,"MEAN_MOTION_DOT":7.068e-5,"MEAN_MOTION_DDOT":0}]
